0 IRIDIUM 33 DEB
1 34704U 97051LB  13282.28423087  .00053351  00000-0  80289-2 0  2988
2 34704 086.4022 114.4468 0012553 338.5000 073.3129 14.74122508241483
0 IRIDIUM 33 DEB
1 34704U 97051LB  13283.04516609  .00039504  00000-0  59485-2 0  2995
2 34704 086.4020 114.1083 0012486 336.0716 151.3412 14.74179657241594
0 IRIDIUM 33 DEB
1 34704U 97051LB  13284.00033052  .00038379  00000-0  57728-2 0  3008
2 34704 086.4022 113.6835 0012434 332.5073 180.8004 14.74233160241735
0 IRIDIUM 33 DEB
1 34704U 97051LB  13286.03165818  .00034159  00000-0  51265-2 0  3023
2 34704 086.4018 112.7793 0012269 325.1685 162.2739 14.74355280242037
0 IRIDIUM 33 DEB
1 34704U 97051LB  13287.51164799  .00037633  00000-0  56350-2 0  3035
2 34704 086.4008 112.1203 0012187 319.9279 097.9206 14.74435557242258
0 IRIDIUM 33 DEB
1 34704U 97051LB  13287.72900950  .00050285  00000-0  75123-2 0  3043
2 34704 086.4007 112.0234 0012239 319.5530 171.3036 14.74459621242283
0 IRIDIUM 33 DEB
1 34704U 97051LB  13288.74690594  .00051086  00000-0  76131-2 0  3057
2 34704 086.4005 111.5701 0012209 315.7940 174.7925 14.74562044242439
0 IRIDIUM 33 DEB
1 34704U 97051LB  13289.69647234  .00056555  00000-0  84085-2 0  3069
2 34704 086.4002 111.1471 0012276 312.5728 175.5642 14.74629228242577
0 IRIDIUM 33 DEB
1 34704U 97051LB  13290.49214303  .00054477  00000-0  80898-2 0  3076
2 34704 086.4000 110.7929 0012352 310.2680 079.1624 14.74693332242694
0 IRIDIUM 33 DEB
1 34704U 97051LB  13291.51423773  .00047161  00000-0  69964-2 0  3087
2 34704 086.4005 110.3378 0012111 305.6504 106.6266 14.74781358242840
0 IRIDIUM 33 DEB
1 34704U 97051LB  13292.95784164  .00042337  00000-0  62672-2 0  3090
2 34704 086.4009 109.6947 0012145 301.0949 210.9146 14.74902798243050
0 IRIDIUM 33 DEB
1 34704U 97051LB  13293.97740834  .00049806  00000-0  73517-2 0  3109
2 34704 086.4014 109.2409 0012350 298.0802 224.0927 14.74980649243218
0 IRIDIUM 33 DEB
1 34704U 97051LB  13295.17798304  .00053318  00000-0  78497-2 0  3114
2 34704 086.4014 108.7057 0012162 293.7290 119.4842 14.75073025243388
